{
    "links": {
        "self": "http://www.neowsapp.com/rest/v1/neo/3827132?api_key=iIulBulltgU6a56xZRHN4H3l9WmuAYTsLGpBGhQ2"
    },
    "id": "3827132",
    "neo_reference_id": "3827132",
    "name": "(2018 PV24)",
    "designation": "2018 PV24",
    "nasa_jpl_url": "http://ssd.jpl.nasa.gov/sbdb.cgi?sstr=3827132",
    "absolute_magnitude_h": 29.6,
    "estimated_diameter": {
        "kilometers": {
            "estimated_diameter_min": 0.0031956189,
            "estimated_diameter_max": 0.007145621
        },
        "meters": {
            "estimated_diameter_min": 3.1956188672,
            "estimated_diameter_max": 7.1456210173
        },
        "miles": {
            "estimated_diameter_min": 0.0019856649,
            "estimated_diameter_max": 0.0044400817
        },
        "feet": {
            "estimated_diameter_min": 10.4843142043,
            "estimated_diameter_max": 23.4436392583
        }
    },
    "is_potentially_hazardous_asteroid": false,
    "close_approach_data": [
        {
            "close_approach_date": "1999-02-24",
            "close_approach_date_full": "1999-Feb-24 09:13",
            "epoch_date_close_approach": 919847580000,
            "relative_velocity": {
                "kilometers_per_second": "17.8037444374",
                "kilometers_per_hour": "64093.4799747757",
                "miles_per_hour": "39825.1959321044"
            },
            "miss_distance": {
                "astronomical": "0.3820985258",
                "lunar": "148.6363265362",
                "kilometers": "57161125.589820046",
                "miles": "35518276.4371507948"
            },
            "orbiting_body": "Earth"
        },
        {
            "close_approach_date": "2018-08-17",
            "close_approach_date_full": "2018-Aug-17 21:09",
            "epoch_date_close_approach": 1534540140000,
            "relative_velocity": {
                "kilometers_per_second": "6.5550630617",
                "kilometers_per_hour": "23598.2270222156",
                "miles_per_hour": "14663.0205627761"
            },
            "miss_distance": {
                "astronomical": "0.0030380045",
                "lunar": "1.1817837505",
                "kilometers": "454479.002250415",
                "miles": "282400.156929127"
            },
            "orbiting_body": "Earth"
        },
        {
            "close_approach_date": "2018-08-17",
            "close_approach_date_full": "2018-Aug-17 22:08",
            "epoch_date_close_approach": 1534543680000,
            "relative_velocity": {
                "kilometers_per_second": "7.5053845369",
                "kilometers_per_hour": "27019.3843328975",
                "miles_per_hour": "16788.7946706273"
            },
            "miss_distance": {
                "astronomical": "0.0030679127",
                "lunar": "1.1934180403",
                "kilometers": "458953.205265949",
                "miles": "285180.2977661362"
            },
            "orbiting_body": "Moon"
        },
        {
            "close_approach_date": "2019-05-01",
            "close_approach_date_full": "2019-May-01 22:40",
            "epoch_date_close_approach": 1556750400000,
            "relative_velocity": {
                "kilometers_per_second": "6.5451650249",
                "kilometers_per_hour": "23562.5940895574",
                "miles_per_hour": "14640.8796441475"
            },
            "miss_distance": {
                "astronomical": "0.3096301195",
                "lunar": "120.4461164855",
                "kilometers": "46320006.365045465",
                "miles": "28781917.319998817"
            },
            "orbiting_body": "Earth"
        },
        {
            "close_approach_date": "2020-02-10",
            "close_approach_date_full": "2020-Feb-10 14:09",
            "epoch_date_close_approach": 1581343740000,
            "relative_velocity": {
                "kilometers_per_second": "10.9760896745",
                "kilometers_per_hour": "39513.9228281978",
                "miles_per_hour": "24552.4149928877"
            },
            "miss_distance": {
                "astronomical": "0.1532077538",
                "lunar": "59.5978162282",
                "kilometers": "22919553.635964406",
                "miles": "14241550.2399285628"
            },
            "orbiting_body": "Earth"
        }
    ],
    "orbital_data": {
        "orbit_id": "1",
        "orbit_determination_date": "2018-08-30 06:52:17",
        "first_observation_date": "2018-08-11",
        "last_observation_date": "2018-08-12",
        "data_arc_in_days": 1,
        "observations_used": 6,
        "orbit_uncertainty": "8",
        "minimum_orbit_intersection": ".00263387",
        "jupiter_tisserand_invariant": "5.760",
        "epoch_osculation": "2458342.5",
        "eccentricity": ".2189265875663346",
        "semi_major_axis": "1.066658661011834",
        "inclination": "4.080044776085678",
        "ascending_node_longitude": "142.5957154600464",
        "orbital_period": "402.3802192937546",
        "perihelion_distance": ".8331387202584373",
        "perihelion_argument": "271.3792480854557",
        "aphelion_distance": "1.30017860176523",
        "perihelion_time": "2458420.544779083368",
        "mean_anomaly": "290.1751946968816",
        "mean_motion": ".8946761861998607",
        "equinox": "J2000",
        "orbit_class": {
            "orbit_class_type": "APO",
            "orbit_class_description": "Near-Earth asteroid orbits which cross the Earth’s orbit similar to that of 1862 Apollo",
            "orbit_class_range": "a (semi-major axis) > 1.0 AU; q (perihelion) < 1.017 AU"
        }
    },
    "is_sentry_object": false
}